ISS DEB                 
1 47853U 98067RZ  22201.32296587  .00012720  00000+0  19818-3 0  9997
2 47853  51.6404 166.5127 0002739 110.9675 249.1609 15.54253253 77029
MMSATS-1                
1 47976U 98067SJ  22201.60924852  .00026957  00000+0  32679-3 0  9994
2 47976  51.6391 158.2698 0002559  94.5117  76.2292 15.60429374 75435
TIANHE                  
1 48274U 21035A   22201.26491898 -.00021137  00000+0 -23846-3 0  9991
2 48274  41.4751  17.5085 0006828 249.4421  97.9198 15.61257941 69936
ISS DEB                 
1 48833U 98067SK  22201.16739319  .00067916  00000+0  61287-3 0  9997
2 48833  51.6346 156.3931 0002911  87.7621 272.3709 15.67503541 64282
RAMSAT                  
1 48850U 98067SL  22201.57604366  .00105300  00000+0  67369-3 0  9991
2 48850  51.6352 147.8622 0002693 112.9933 247.1351 15.75498073 62546
BD-28                   
1 48867U 98067SN  22201.33409839  .00186720  00000+0  89388-3 0  9991
2 48867  51.6264 145.3952 0002634  90.0410 270.0894 15.81671588 61307
ISS (NAUKA)             
1 49044U 21066A   22201.40857775  .00008240  00000+0  15195-3 0  9993
2 49044  51.6419 172.0419 0005020  30.4744  71.6173 15.50043356350333
TIANZHOU-3              
1 49222U 21085A   22200.77820872  .00016630  00000+0  19307-3 0  9990
2 49222  41.4732  20.4961 0001797 139.4649 340.3496 15.61382243 47267
FREGAT DEB              
1 49271U 11037PF  22201.57263021  .00085921  00000+0  49944+0 0  9991
2 49271  51.6429 144.0760 0797055 105.0424 263.9941 11.88750149 51120
BINAR-1                 
1 49272U 98067SR  22201.58746364  .00129415  00000+0  79831-3 0  9996
2 49272  51.6311 151.6495 0005635  74.9152 285.2471 15.76225301 44886
MAYA-3                  
1 49273U 98067SS  22201.55832570  .00554413  14245-3  11754-2 0  9998
2 49273  51.6240 143.8317 0004301 110.4835 249.6636 15.98155561 44989
MAYA-4                  
1 49274U 98067ST  22201.54877450  .00484167  10621-3  11942-2 0  9995
2 49274  51.6269 144.5414 0004384 100.0028 260.1475 15.95413580 44970
CUAVA-1                 
1 49275U 98067SU  22201.39967855  .00244101  00000+0  10145-2 0  9990
2 49275  51.6262 148.6347 0005001  96.0829 359.4388 15.84507754 44851
CAPSAT                  
1 49276U 98067SV  22201.59053476  .00164528  00000+0  91928-3 0  9991
2 49276  51.6345 151.7027 0005742  84.4795 275.6861 15.78335687 43940
PR-CUNAR 2              
1 49277U 98067SW  22201.11304838  .00296637  00000+0  12596-2 0  9991
2 49277  51.6224 151.3620 0006272  83.2192 276.9524 15.83909716 43877
