[{
  "OBJECT_NAME": "ISS DEB",
  "OBJECT_ID": "1998-067RZ",
  "EPOCH": "2022-07-20T07:45:04.251168",
  "MEAN_MOTION": 15.54253253,
  "ECCENTRICITY": 0.0002739,
  "INCLINATION": 51.6404,
  "RA_OF_ASC_NODE": 166.5127,
  "ARG_OF_PERICENTER": 110.9675,
  "MEAN_ANOMALY": 249.1609,
  "EPHEMERIS_TYPE": 0,
  "CLASSIFICATION_TYPE": "U",
  "NORAD_CAT_ID": 47853,
  "ELEMENT_SET_NO": 999,
  "REV_AT_EPOCH": 7702,
  "BSTAR": 0.00019818,
  "MEAN_MOTION_DOT": 0.0001272,
  "MEAN_MOTION_DDOT": 0
},{
  "OBJECT_NAME": "MMSATS-1",
  "OBJECT_ID": "1998-067SJ",
  "EPOCH": "2022-07-20T14:37:19.072128",
  "MEAN_MOTION": 15.60429374,
  "ECCENTRICITY": 0.0002559,
  "INCLINATION": 51.6391,
  "RA_OF_ASC_NODE": 158.2698,
  "ARG_OF_PERICENTER": 94.5117,
  "MEAN_ANOMALY": 76.2292,
  "EPHEMERIS_TYPE": 0,
  "CLASSIFICATION_TYPE": "U",
  "NORAD_CAT_ID": 47976,
  "ELEMENT_SET_NO": 999,
  "REV_AT_EPOCH": 7543,
  "BSTAR": 0.00032679,
  "MEAN_MOTION_DOT": 0.00026957,
  "MEAN_MOTION_DDOT": 0
},{
  "OBJECT_NAME": "TIANHE",
  "OBJECT_ID": "2021-035A",
  "EPOCH": "2022-07-20T06:21:28.999872",
  "MEAN_MOTION": 15.61257941,
  "ECCENTRICITY": 0.0006828,
  "INCLINATION": 41.4751,
  "RA_OF_ASC_NODE": 17.5085,
  "ARG_OF_PERICENTER": 249.4421,
  "MEAN_ANOMALY": 97.9198,
  "EPHEMERIS_TYPE": 0,
  "CLASSIFICATION_TYPE": "U",
  "NORAD_CAT_ID": 48274,
  "ELEMENT_SET_NO": 999,
  "REV_AT_EPOCH": 6993,
  "BSTAR": -0.00023846,
  "MEAN_MOTION_DOT": -0.00021137,
  "MEAN_MOTION_DDOT": 0
},{
  "OBJECT_NAME": "ISS DEB",
  "OBJECT_ID": "1998-067SK",
  "EPOCH": "2022-07-20T04:01:02.771616",
  "MEAN_MOTION": 15.67503541,
  "ECCENTRICITY": 0.0002911,
  "INCLINATION": 51.6346,
  "RA_OF_ASC_NODE": 156.3931,
  "ARG_OF_PERICENTER": 87.7621,
  "MEAN_ANOMALY": 272.3709,
  "EPHEMERIS_TYPE": 0,
  "CLASSIFICATION_TYPE": "U",
  "NORAD_CAT_ID": 48833,
  "ELEMENT_SET_NO": 999,
  "REV_AT_EPOCH": 6428,
  "BSTAR": 0.00061287,
  "MEAN_MOTION_DOT": 0.00067916,
  "MEAN_MOTION_DDOT": 0
},{
  "OBJECT_NAME": "RAMSAT",
  "OBJECT_ID": "1998-067SL",
  "EPOCH": "2022-07-20T13:49:30.172224",
  "MEAN_MOTION": 15.75498073,
  "ECCENTRICITY": 0.0002693,
  "INCLINATION": 51.6352,
  "RA_OF_ASC_NODE": 147.8622,
  "ARG_OF_PERICENTER": 112.9933,
  "MEAN_ANOMALY": 247.1351,
  "EPHEMERIS_TYPE": 0,
  "CLASSIFICATION_TYPE": "U",
  "NORAD_CAT_ID": 48850,
  "ELEMENT_SET_NO": 999,
  "REV_AT_EPOCH": 6254,
  "BSTAR": 0.00067369,
  "MEAN_MOTION_DOT": 0.001053,
  "MEAN_MOTION_DDOT": 0
},{
  "OBJECT_NAME": "BD-28",
  "OBJECT_ID": "1998-067SN",
  "EPOCH": "2022-07-20T08:01:06.100896",
  "MEAN_MOTION": 15.81671588,
  "ECCENTRICITY": 0.0002634,
  "INCLINATION": 51.6264,
  "RA_OF_ASC_NODE": 145.3952,
  "ARG_OF_PERICENTER": 90.041,
  "MEAN_ANOMALY": 270.0894,
  "EPHEMERIS_TYPE": 0,
  "CLASSIFICATION_TYPE": "U",
  "NORAD_CAT_ID": 48867,
  "ELEMENT_SET_NO": 999,
  "REV_AT_EPOCH": 6130,
  "BSTAR": 0.00089388,
  "MEAN_MOTION_DOT": 0.0018672,
  "MEAN_MOTION_DDOT": 0
},{
  "OBJECT_NAME": "ISS (NAUKA)",
  "OBJECT_ID": "2021-066A",
  "EPOCH": "2022-07-20T09:48:21.117600",
  "MEAN_MOTION": 15.50043356,
  "ECCENTRICITY": 0.000502,
  "INCLINATION": 51.6419,
  "RA_OF_ASC_NODE": 172.0419,
  "ARG_OF_PERICENTER": 30.4744,
  "MEAN_ANOMALY": 71.6173,
  "EPHEMERIS_TYPE": 0,
  "CLASSIFICATION_TYPE": "U",
  "NORAD_CAT_ID": 49044,
  "ELEMENT_SET_NO": 999,
  "REV_AT_EPOCH": 35033,
  "BSTAR": 0.00015195,
  "MEAN_MOTION_DOT": 8.24e-5,
  "MEAN_MOTION_DDOT": 0
},{
  "OBJECT_NAME": "TIANZHOU-3",
  "OBJECT_ID": "2021-085A",
  "EPOCH": "2022-07-19T18:40:37.233408",
  "MEAN_MOTION": 15.61382243,
  "ECCENTRICITY": 0.0001797,
  "INCLINATION": 41.4732,
  "RA_OF_ASC_NODE": 20.4961,
  "ARG_OF_PERICENTER": 139.4649,
  "MEAN_ANOMALY": 340.3496,
  "EPHEMERIS_TYPE": 0,
  "CLASSIFICATION_TYPE": "U",
  "NORAD_CAT_ID": 49222,
  "ELEMENT_SET_NO": 999,
  "REV_AT_EPOCH": 4726,
  "BSTAR": 0.00019307,
  "MEAN_MOTION_DOT": 0.0001663,
  "MEAN_MOTION_DDOT": 0
},{
  "OBJECT_NAME": "FREGAT DEB",
  "OBJECT_ID": "2011-037PF",
  "EPOCH": "2022-07-20T13:44:35.250144",
  "MEAN_MOTION": 11.88750149,
  "ECCENTRICITY": 0.0797055,
  "INCLINATION": 51.6429,
  "RA_OF_ASC_NODE": 144.076,
  "ARG_OF_PERICENTER": 105.0424,
  "MEAN_ANOMALY": 263.9941,
  "EPHEMERIS_TYPE": 0,
  "CLASSIFICATION_TYPE": "U",
  "NORAD_CAT_ID": 49271,
  "ELEMENT_SET_NO": 999,
  "REV_AT_EPOCH": 5112,
  "BSTAR": 0.49944,
  "MEAN_MOTION_DOT": 0.00085921,
  "MEAN_MOTION_DDOT": 0
},{
  "OBJECT_NAME": "BINAR-1",
  "OBJECT_ID": "1998-067SR",
  "EPOCH": "2022-07-20T14:05:56.858496",
  "MEAN_MOTION": 15.76225301,
  "ECCENTRICITY": 0.0005635,
  "INCLINATION": 51.6311,
  "RA_OF_ASC_NODE": 151.6495,
  "ARG_OF_PERICENTER": 74.9152,
  "MEAN_ANOMALY": 285.2471,
  "EPHEMERIS_TYPE": 0,
  "CLASSIFICATION_TYPE": "U",
  "NORAD_CAT_ID": 49272,
  "ELEMENT_SET_NO": 999,
  "REV_AT_EPOCH": 4488,
  "BSTAR": 0.00079831,
  "MEAN_MOTION_DOT": 0.00129415,
  "MEAN_MOTION_DDOT": 0
},{
  "OBJECT_NAME": "MAYA-3",
  "OBJECT_ID": "1998-067SS",
  "EPOCH": "2022-07-20T13:23:59.340480",
  "MEAN_MOTION": 15.98155561,
  "ECCENTRICITY": 0.0004301,
  "INCLINATION": 51.624,
  "RA_OF_ASC_NODE": 143.8317,
  "ARG_OF_PERICENTER": 110.4835,
  "MEAN_ANOMALY": 249.6636,
  "EPHEMERIS_TYPE": 0,
  "CLASSIFICATION_TYPE": "U",
  "NORAD_CAT_ID": 49273,
  "ELEMENT_SET_NO": 999,
  "REV_AT_EPOCH": 4498,
  "BSTAR": 0.0011754,
  "MEAN_MOTION_DOT": 0.00554413,
  "MEAN_MOTION_DDOT": 0.00014245
},{
  "OBJECT_NAME": "MAYA-4",
  "OBJECT_ID": "1998-067ST",
  "EPOCH": "2022-07-20T13:10:14.116800",
  "MEAN_MOTION": 15.9541358,
  "ECCENTRICITY": 0.0004384,
  "INCLINATION": 51.6269,
  "RA_OF_ASC_NODE": 144.5414,
  "ARG_OF_PERICENTER": 100.0028,
  "MEAN_ANOMALY": 260.1475,
  "EPHEMERIS_TYPE": 0,
  "CLASSIFICATION_TYPE": "U",
  "NORAD_CAT_ID": 49274,
  "ELEMENT_SET_NO": 999,
  "REV_AT_EPOCH": 4497,
  "BSTAR": 0.0011942,
  "MEAN_MOTION_DOT": 0.00484167,
  "MEAN_MOTION_DDOT": 0.00010621
},{
  "OBJECT_NAME": "CUAVA-1",
  "OBJECT_ID": "1998-067SU",
  "EPOCH": "2022-07-20T09:35:32.226720",
  "MEAN_MOTION": 15.84507754,
  "ECCENTRICITY": 0.0005001,
  "INCLINATION": 51.6262,
  "RA_OF_ASC_NODE": 148.6347,
  "ARG_OF_PERICENTER": 96.0829,
  "MEAN_ANOMALY": 359.4388,
  "EPHEMERIS_TYPE": 0,
  "CLASSIFICATION_TYPE": "U",
  "NORAD_CAT_ID": 49275,
  "ELEMENT_SET_NO": 999,
  "REV_AT_EPOCH": 4485,
  "BSTAR": 0.0010145,
  "MEAN_MOTION_DOT": 0.00244101,
  "MEAN_MOTION_DDOT": 0
},{
  "OBJECT_NAME": "CAPSAT",
  "OBJECT_ID": "1998-067SV",
  "EPOCH": "2022-07-20T14:10:22.203264",
  "MEAN_MOTION": 15.78335687,
  "ECCENTRICITY": 0.0005742,
  "INCLINATION": 51.6345,
  "RA_OF_ASC_NODE": 151.7027,
  "ARG_OF_PERICENTER": 84.4795,
  "MEAN_ANOMALY": 275.6861,
  "EPHEMERIS_TYPE": 0,
  "CLASSIFICATION_TYPE": "U",
  "NORAD_CAT_ID": 49276,
  "ELEMENT_SET_NO": 999,
  "REV_AT_EPOCH": 4394,
  "BSTAR": 0.00091928,
  "MEAN_MOTION_DOT": 0.00164528,
  "MEAN_MOTION_DDOT": 0
},{
  "OBJECT_NAME": "PR-CUNAR 2",
  "OBJECT_ID": "1998-067SW",
  "EPOCH": "2022-07-20T02:42:47.380032",
  "MEAN_MOTION": 15.83909716,
  "ECCENTRICITY": 0.0006272,
  "INCLINATION": 51.6224,
  "RA_OF_ASC_NODE": 151.362,
  "ARG_OF_PERICENTER": 83.2192,
  "MEAN_ANOMALY": 276.9524,
  "EPHEMERIS_TYPE": 0,
  "CLASSIFICATION_TYPE": "U",
  "NORAD_CAT_ID": 49277,
  "ELEMENT_SET_NO": 999,
  "REV_AT_EPOCH": 4387,
  "BSTAR": 0.0012596,
  "MEAN_MOTION_DOT": 0.00296637,
  "MEAN_MOTION_DDOT": 0
}]
